OBJECT_NAME,OBJECT_ID,EPOCH,MEAN_MOTION,ECCENTRICITY,INCLINATION,RA_OF_ASC_NODE,ARG_OF_PERICENTER,MEAN_ANOMALY,EPHEMERIS_TYPE,CLASSIFICATION_TYPE,NORAD_CAT_ID,ELEMENT_SET_NO,REV_AT_EPOCH,BSTAR,MEAN_MOTION_DOT,MEAN_MOTION_DDOT
FENGYUN 3D,2017-072A,2026-06-09T12:51:57.159072,14.19739036,.0002633,99.0125,134.8202,73.4475,286.6989,0,U,43010,999,44390,.16296E-3,.299E-5,0
NOAA 20 (JPSS-1),2017-073A,2026-06-09T11:01:22.512576,14.19510363,.0000427,98.7771,99.9907,44.2274,315.8936,0,U,43013,999,44337,.43206E-4,.47E-6,0
GOES 17,2018-022A,2026-06-09T09:29:20.800032,1.00271522,.0000572,0.9164,85.8552,14.3210,210.4459,0,U,43226,999,3034,0,-.166E-5,0
SENTINEL-3B,2018-039A,2026-06-09T11:24:35.773056,14.26739618,.0000845,98.6249,228.1182,78.9566,281.1709,0,U,43437,999,42302,.58009E-4,.97E-6,0
FENGYUN 2H,2018-050A,2026-06-09T12:00:18.924192,1.00271057,.0001609,3.0104,79.1641,127.3006,310.9378,0,U,43491,999,2936,0,-.114E-5,0
METOP-C,2018-087A,2026-06-09T11:11:19.888224,14.21510026,.0001478,98.6646,220.2106,138.1763,221.9527,0,U,43689,999,39373,.57904E-4,.83E-6,0
GEO-KOMPSAT-2A,2018-100A,2026-06-09T12:14:07.975392,1.00270115,.0002247,0.0517,131.1417,313.3318,125.2042,0,U,43823,999,2755,0,-.327E-5,0
METEOR-M2 2,2019-038A,2026-06-09T12:25:19.782048,14.24364879,.0002292,98.9146,147.6900,59.3020,300.8384,0,U,44387,999,36020,.19435E-3,.403E-5,0
ARKTIKA-M 1,2021-016A,2026-06-02T00:56:25.095840,2.00628509,.72832396,63.2379,59.8266,269.8643,14.6915,0,U,47719,999,3848,0,-.2E-5,0
FENGYUN 3E,2021-062A,2026-06-09T12:29:57.023232,14.19903341,.0002782,98.7497,164.0145,97.9221,262.2271,0,U,49008,999,25549,.18996E-5,-.4E-6,0
GOES 18,2022-021A,2026-06-09T12:16:38.807328,1.00271079,.0000476,0.0457,138.3664,1.4072,165.2713,0,U,51850,999,651,0,.114E-5,0
NOAA 21 (JPSS-2),2022-150A,2026-06-09T11:49:09.560928,14.19564147,.0001214,98.7059,99.4109,172.4000,187.7195,0,U,54234,999,18545,.44734E-4,.51E-6,0
METEOSAT-12 (MTG-I1),2022-170C,2026-06-09T08:12:08.704224,1.00271638,.000336,0.7292,21.5863,71.5154,287.2272,0,U,54743,999,1289,0,.8E-7,0
TIANMU-1 03,2023-039A,2026-06-09T11:35:38.262336,15.47066094,.000416,97.5235,334.1526,118.4247,241.7422,0,U,55973,999,17964,.27363E-3,.13761E-3,0
TIANMU-1 04,2023-039B,2026-06-09T12:57:50.893632,15.47657998,.0004751,97.5172,333.3651,115.2443,244.9299,0,U,55974,999,17966,.27905E-3,.14328E-3,0
TIANMU-1 05,2023-039C,2026-06-09T12:40:33.265920,15.46992928,.0003812,97.5215,333.8173,132.6498,227.5073,0,U,55975,999,17963,.27415E-3,.13751E-3,0
TIANMU-1 06,2023-039D,2026-06-09T11:28:55.795584,15.47563138,.0004081,97.5224,334.3934,129.8912,230.2697,0,U,55976,999,17965,.2781E-3,.14231E-3,0
FENGYUN 3G,2023-055A,2026-06-09T03:00:18.071424,15.54457419,.0005565,49.9935,27.5514,167.7824,192.3280,0,U,56232,999,17875,.34170294E-3,.22526E-3,0
METEOR-M2 3,2023-091A,2026-06-09T12:14:36.218688,14.24046121,.0003918,98.6092,215.6452,175.6776,184.4437,0,U,57166,999,15342,.14458E-4,-.1E-6,0
TIANMU-1 07,2023-101A,2026-06-09T12:17:47.757120,15.29717730,.0003671,97.2599,211.3572,137.4419,222.7107,0,U,57399,999,16047,.18886E-3,.5363E-4,0
TIANMU-1 08,2023-101B,2026-06-09T11:29:47.486976,15.29722358,.0005208,97.2587,211.0964,133.9506,226.2165,0,U,57400,999,16046,.1947E-3,.5533E-4,0
TIANMU-1 09,2023-101C,2026-06-09T12:40:19.000416,15.29751657,.0004048,97.2545,210.5640,144.6300,215.5210,0,U,57401,999,16047,.20135E-3,.573E-4,0
TIANMU-1 10,2023-101D,2026-06-09T11:53:30.611616,15.29721939,.0005649,97.2625,211.5749,146.4349,213.7251,0,U,57402,999,16046,.20368E-3,.5793E-4,0
FENGYUN 3F,2023-111A,2026-06-09T12:07:02.889984,14.19937789,.0001587,98.6841,230.6565,98.7050,261.4306,0,U,57490,999,14777,.37718E-4,.37E-6,0
ARKTIKA-M 2,2023-198A,2026-06-03T07:17:21.587712,2.00591941,.68985494,63.2209,155.9142,267.4684,18.7857,0,U,58584,999,1804,0,.15E-5,0
TIANMU-1 11,2023-205A,2026-06-09T12:24:58.266720,15.26915665,.0009841,97.3453,182.1949,41.9111,318.2879,0,U,58645,999,13635,.18841E-3,.4913E-4,0
TIANMU-1 12,2023-205B,2026-06-09T11:42:01.716768,15.26877463,.0007691,97.3441,181.9228,29.7557,330.4118,0,U,58646,999,13633,.19821E-3,.5164E-4,0
TIANMU-1 13,2023-205C,2026-06-09T12:27:18.677952,15.26732638,.0006842,97.3469,182.2252,10.1066,350.0310,0,U,58647,999,13633,.20104E-3,.5214E-4,0
TIANMU-1 14,2023-205D,2026-06-09T12:06:19.841184,15.26776888,.0007823,97.3405,181.3987,13.6438,346.5011,0,U,58648,999,13633,.18805E-3,.488E-4,0
TIANMU-1 19,2023-208A,2026-06-09T13:51:13.149792,15.31458961,.000445,97.4491,276.8395,0.0786,0.0455,0,U,58660,999,13616,.24458E-3,.7354E-4,0
TIANMU-1 20,2023-208B,2026-06-09T11:46:07.686336,15.32648709,.0006702,97.4433,277.3795,3.7558,356.3733,0,U,58661,999,13624,.22924E-3,.7152E-4,0
