FENGYUN 3D              
1 43010U 17072A   26160.53607823  .00000299  00000+0  16296-3 0  9990
2 43010  99.0125 134.8202 0002633  73.4475 286.6989 14.19739036443901
NOAA 20 (JPSS-1)        
1 43013U 17073A   26160.45928834  .00000047  00000+0  43206-4 0  9996
2 43013  98.7771  99.9907 0000427  44.2274 315.8936 14.19510363443370
GOES 17                 
1 43226U 18022A   26160.39537963 -.00000166  00000+0  00000+0 0  9992
2 43226   0.9164  85.8552 0000572  14.3210 210.4459  1.00271522 30342
SENTINEL-3B             
1 43437U 18039A   26160.47541404  .00000097  00000+0  58009-4 0  9997
2 43437  98.6249 228.1182 0000845  78.9566 281.1709 14.26739618423029
FENGYUN 2H              
1 43491U 18050A   26160.50021903 -.00000114  00000+0  00000+0 0  9995
2 43491   3.0104  79.1641 0001609 127.3006 310.9378  1.00271057 29368
METOP-C                 
1 43689U 18087A   26160.46620241  .00000083  00000+0  57904-4 0  9993
2 43689  98.6646 220.2106 0001478 138.1763 221.9527 14.21510026393738
GEO-KOMPSAT-2A          
1 43823U 18100A   26160.50981453 -.00000327  00000+0  00000+0 0  9991
2 43823   0.0517 131.1417 0002247 313.3318 125.2042  1.00270115 27552
METEOR-M2 2             
1 44387U 19038A   26160.51759007  .00000403  00000+0  19435-3 0  9997
2 44387  98.9146 147.6900 0002292  59.3020 300.8384 14.24364879360201
ARKTIKA-M 1             
1 47719U 21016A   26153.03917935 -.00000200  00000+0  00000+0 0  9993
2 47719  63.2379  59.8266 7283239 269.8643  14.6915  2.00628509 38489
FENGYUN 3E              
1 49008U 21062A   26160.52079888 -.00000040  00000+0  18996-5 0  9996
2 49008  98.7497 164.0145 0002782  97.9221 262.2271 14.19903341255499
GOES 18                 
1 51850U 22021A   26160.51156027  .00000114  00000+0  00000+0 0  9992
2 51850   0.0457 138.3664 0000476   1.4072 165.2713  1.00271079  6513
NOAA 21 (JPSS-2)        
1 54234U 22150A   26160.49247177  .00000051  00000+0  44734-4 0  9995
2 54234  98.7059  99.4109 0001214 172.4000 187.7195 14.19564147185455
METEOSAT-12 (MTG-I1)    
1 54743U 22170C   26160.34176741  .00000008  00000+0  00000+0 0  9999
2 54743   0.7292  21.5863 0003360  71.5154 287.2272  1.00271638 12893
TIANMU-1 03             
1 55973U 23039A   26160.48308174  .00013761  00000+0  27363-3 0  9997
2 55973  97.5235 334.1526 0004160 118.4247 241.7422 15.47066094179645
TIANMU-1 04             
1 55974U 23039B   26160.54017238  .00014328  00000+0  27905-3 0  9995
2 55974  97.5172 333.3651 0004751 115.2443 244.9299 15.47657998179663
TIANMU-1 05             
1 55975U 23039C   26160.52816280  .00013751  00000+0  27415-3 0  9993
2 55975  97.5215 333.8173 0003812 132.6498 227.5073 15.46992928179634
TIANMU-1 06             
1 55976U 23039D   26160.47842356  .00014231  00000+0  27810-3 0  9994
2 55976  97.5224 334.3934 0004081 129.8912 230.2697 15.47563138179657
FENGYUN 3G              
1 56232U 23055A   26160.12520916  .00022526  00000+0  34170-3 0  9998
2 56232  49.9935  27.5514 0005565 167.7824 192.3280 15.54457419178757
METEOR-M2 3             
1 57166U 23091A   26160.51014142 -.00000010  00000+0  14458-4 0  9990
2 57166  98.6092 215.6452 0003918 175.6776 184.4437 14.24046121153427
TIANMU-1 07             
1 57399U 23101A   26160.51235830  .00005363  00000+0  18886-3 0  9992
2 57399  97.2599 211.3572 0003671 137.4419 222.7107 15.29717730160474
TIANMU-1 08             
1 57400U 23101B   26160.47902184  .00005533  00000+0  19470-3 0  9992
2 57400  97.2587 211.0964 0005208 133.9506 226.2165 15.29722358160466
TIANMU-1 09             
1 57401U 23101C   26160.52799769  .00005730  00000+0  20135-3 0  9991
2 57401  97.2545 210.5640 0004048 144.6300 215.5210 15.29751657160475
TIANMU-1 10             
1 57402U 23101D   26160.49549319  .00005793  00000+0  20368-3 0  9999
2 57402  97.2625 211.5749 0005649 146.4349 213.7251 15.29721939160461
FENGYUN 3F              
1 57490U 23111A   26160.50489456  .00000037  00000+0  37718-4 0  9998
2 57490  98.6841 230.6565 0001587  98.7050 261.4306 14.19937789147776
ARKTIKA-M 2             
1 58584U 23198A   26154.30372208  .00000150  00000+0  00000+0 0  9990
2 58584  63.2209 155.9142 6898549 267.4684  18.7857  2.00591941 18047
TIANMU-1 11             
1 58645U 23205A   26160.51734105  .00004913  00000+0  18841-3 0  9992
2 58645  97.3453 182.1949 0009841  41.9111 318.2879 15.26915665136356
TIANMU-1 12             
1 58646U 23205B   26160.48751987  .00005164  00000+0  19821-3 0  9994
2 58646  97.3441 181.9228 0007691  29.7557 330.4118 15.26877463136333
TIANMU-1 13             
1 58647U 23205C   26160.51896618  .00005214  00000+0  20104-3 0  9992
2 58647  97.3469 182.2252 0006842  10.1066 350.0310 15.26732638136337
TIANMU-1 14             
1 58648U 23205D   26160.50439631  .00004880  00000+0  18805-3 0  9993
2 58648  97.3405 181.3987 0007823  13.6438 346.5011 15.26776888136337
TIANMU-1 19             
1 58660U 23208A   26160.57723553  .00007354  00000+0  24458-3 0  9996
2 58660  97.4491 276.8395 0004450   0.0786   0.0455 15.31458961136169
TIANMU-1 20             
1 58661U 23208B   26160.49036674  .00007152  00000+0  22924-3 0  9991
2 58661  97.4433 277.3795 0006702   3.7558 356.3733 15.32648709136242
